*******************************************************************************
Ephemeris / WWW_USER Mon Mar 26 19:57:07 2018 Pasadena, USA      / Horizons    
*******************************************************************************
Target body name: Larissa (807)                   {source: nep088}
Center body name: Neptune Barycenter (8)          {source: nep088}
Center-site name: BODY CENTER
*******************************************************************************
Start time      : A.D. 2000-Jan-01 00:00:00.0000 TDB
Stop  time      : A.D. 2001-Jan-01 00:00:00.0000 TDB
Step-size       : 7200 minutes
*******************************************************************************
Center geodetic : 0.00000000,0.00000000,0.0000000 {E-lon(deg),Lat(deg),Alt(km)}
Center cylindric: 0.00000000,0.00000000,0.0000000 {E-lon(deg),Dxy(km),Dz(km)}
Center radii    : (undefined)                                                  
Output units    : AU-D                                                         
Output type     : GEOMETRIC cartesian states
Output format   : 2 (position and velocity)
Reference frame : ICRF/J2000.0                                                 
Coordinate systm: Ecliptic and Mean Equinox of Reference Epoch                 
*******************************************************************************
JDTDB
   X     Y     Z
   VX    VY    VZ
*******************************************************************************
$$SOE
2451544.500000000 = A.D. 2000-Jan-01 00:00:00.0000 TDB 
   2.423180753907410E-04  4.252025195936212E-04  5.492167649049275E-05
  -4.417378413078221E-03  2.173424390232259E-03  2.588124199183557E-03
2451549.500000000 = A.D. 2000-Jan-06 00:00:00.0000 TDB 
   2.053925413835941E-04  4.413650684390935E-04  7.601760816395495E-05
  -4.649347882912408E-03  1.723685191981514E-03  2.519230277483437E-03
2451554.500000000 = A.D. 2000-Jan-11 00:00:00.0000 TDB 
   1.664372181172032E-04  4.535430661446828E-04  9.640915400883013E-05
  -4.842315597722240E-03  1.259531965556341E-03  2.429414139066780E-03
2451559.500000000 = A.D. 2000-Jan-16 00:00:00.0000 TDB 
   1.260652373093445E-04  4.616075268888634E-04  1.157030201061518E-04
  -4.994807080654151E-03  7.845661349242477E-04  2.319269723834412E-03
2451564.500000000 = A.D. 2000-Jan-21 00:00:00.0000 TDB 
   8.490964454826450E-05  4.657026620851156E-04  1.337381946549855E-04
  -5.105375888825862E-03  3.025824010251073E-04  2.189442399315525E-03
2451569.500000000 = A.D. 2000-Jan-26 00:00:00.0000 TDB 
   4.337946178456707E-05  4.660710898369440E-04  1.505862169869753E-04
  -5.172736658440437E-03 -1.822985839089234E-04  2.040864089187779E-03
2451574.500000000 = A.D. 2000-Jan-31 00:00:00.0000 TDB 
   1.605992854274692E-06  4.628251296922063E-04  1.663684431861190E-04
  -5.196053214603617E-03 -6.657169735740160E-04  1.874886878610304E-03
2451579.500000000 = A.D. 2000-Feb-05 00:00:00.0000 TDB 
  -4.037914110562586E-05  4.558511668303817E-04  1.810404921903425E-04
  -5.175153158029169E-03 -1.143336558518507E-03  1.693198361484053E-03
2451584.500000000 = A.D. 2000-Feb-10 00:00:00.0000 TDB 
  -8.238198678026927E-05  4.449252257017325E-04  1.943208094536483E-04
  -5.110497890309285E-03 -1.611096674113075E-03  1.497579169430448E-03
2451589.500000000 = A.D. 2000-Feb-15 00:00:00.0000 TDB 
  -1.239165937924559E-04  4.299452303460028E-04  2.058225700667501E-04
  -5.002934201256995E-03 -2.065275072063452E-03  1.289690974318968E-03
2451594.500000000 = A.D. 2000-Feb-20 00:00:00.0000 TDB 
  -1.643159959736516E-04  4.110899087174472E-04  2.152820610178215E-04
  -4.853429422147205E-03 -2.502337671819145E-03  1.071057579709289E-03
2451599.500000000 = A.D. 2000-Feb-25 00:00:00.0000 TDB 
  -2.029956015982254E-04  3.887739975106449E-04  2.226978270695073E-04
  -4.663003016547607E-03 -2.918724733792792E-03  8.432431674481464E-04
2451604.500000000 = A.D. 2000-Mar-01 00:00:00.0000 TDB 
  -2.396563776061506E-04  3.634354900302853E-04  2.282676600292321E-04
  -4.432904532714643E-03 -3.310774009123251E-03  6.080702390352221E-04
2451609.500000000 = A.D. 2000-Mar-06 00:00:00.0000 TDB 
  -2.742642955388653E-04  3.353275347914998E-04  2.321753652153526E-04
  -4.164884478025271E-03 -3.674868785933447E-03  3.676868029632089E-04
2451614.500000000 = A.D. 2000-Mar-11 00:00:00.0000 TDB 
  -3.068250469494907E-04  3.044836539649138E-04  2.344017848534049E-04
  -3.861326305515530E-03 -4.007713994185100E-03  1.244148242212371E-04
2451619.500000000 = A.D. 2000-Mar-16 00:00:00.0000 TDB 
  -3.371400967141619E-04  2.708832497341896E-04  2.347146569691284E-04
  -3.525118868434588E-03 -4.306537604176375E-03 -1.195098081251587E-04
2451624.500000000 = A.D. 2000-Mar-21 00:00:00.0000 TDB 
  -3.647452598694420E-04  2.346806800854205E-04  2.328458115344895E-04
  -3.159358315252007E-03 -4.569073980268394E-03 -3.621072864266165E-04
2451629.500000000 = A.D. 2000-Mar-26 00:00:00.0000 TDB 
  -3.890838387865069E-04  1.963090804858673E-04  2.287111322668006E-04
  -2.767105695280265E-03 -4.793362167235924E-03 -6.016089276794863E-04
2451634.500000000 = A.D. 2000-Mar-31 00:00:00.0000 TDB 
  -4.097746875069508E-04  1.563722677202963E-04  2.224937145555433E-04
  -2.351378995172686E-03 -4.977541360899462E-03 -8.362479880796406E-04
2451639.500000000 = A.D. 2000-Apr-05 00:00:00.0000 TDB 
  -4.267580034267596E-04  1.154109062803989E-04  2.145222314771465E-04
  -1.915365186043743E-03 -5.119825903845479E-03 -1.064070789206536E-03
2451644.500000000 = A.D. 2000-Apr-10 00:00:00.0000 TDB 
  -4.402012336540304E-04  7.373163477021324E-05  2.050435112258061E-04
  -1.462656797245382E-03 -5.218693602156774E-03 -1.282936017071324E-03
2451649.500000000 = A.D. 2000-Apr-15 00:00:00.0000 TDB 
  -4.502431322135203E-04  3.143640141243596E-05  1.940746228894487E-04
  -9.972959549903455E-04 -5.273144624674405E-03 -1.490716176763647E-03
2451654.500000000 = A.D. 2000-Apr-20 00:00:00.0000 TDB 
  -4.567859372416732E-04 -1.137428494422015E-05  1.814547590021698E-04
  -5.235648668576473E-04 -5.282828239335396E-03 -1.685549715654413E-03
2451659.500000000 = A.D. 2000-Apr-25 00:00:00.0000 TDB 
  -4.595061486795261E-04 -5.439253899115822E-05  1.670540115541612E-04
  -4.566768646285654E-05 -5.247940030233323E-03 -1.865950431929891E-03
2451664.500000000 = A.D. 2000-Apr-30 00:00:00.0000 TDB 
  -4.580756824923903E-04 -9.706167136335334E-05  1.509679363643282E-04
   4.324633280119591E-04 -5.168977172565913E-03 -2.030696660470419E-03
2451669.500000000 = A.D. 2000-May-05 00:00:00.0000 TDB 
  -4.524132178924613E-04 -1.387384126454389E-04  1.335383596606451E-04
   9.071066573493980E-04 -5.046552620214854E-03 -2.178601847377018E-03
2451674.500000000 = A.D. 2000-May-10 00:00:00.0000 TDB 
  -4.427607450065876E-04 -1.789288529489213E-04  1.151826037264859E-04
   1.374513016671806E-03 -4.881418325455494E-03 -2.308363972090027E-03
2451679.500000000 = A.D. 2000-May-15 00:00:00.0000 TDB 
  -4.295227362422064E-04 -2.174079297365639E-04  9.616959199454513E-05
   1.830712020158290E-03 -4.674674513540969E-03 -2.418626145071218E-03
2451684.500000000 = A.D. 2000-May-20 00:00:00.0000 TDB 
  -4.129989384575368E-04 -2.541272975133271E-04  7.652462111988899E-05
   2.271549560172119E-03 -4.427987505938917E-03 -2.508207314307428E-03
2451689.500000000 = A.D. 2000-May-25 00:00:00.0000 TDB 
  -3.932284021603264E-04 -2.889891234027663E-04  5.613949598615116E-05
   2.692952694931753E-03 -4.143629118517042E-03 -2.576322109258808E-03
2451694.500000000 = A.D. 2000-May-30 00:00:00.0000 TDB 
  -3.700713467063060E-04 -3.216727554397662E-04  3.499702675245957E-05
   3.091232450598298E-03 -3.824293852973427E-03 -2.622616530231327E-03
2451699.500000000 = A.D. 2000-Jun-04 00:00:00.0000 TDB 
  -3.434610245052724E-04 -3.516579235383715E-04  1.332546815288496E-05
   3.463203140105269E-03 -3.472829310409120E-03 -2.646995467574797E-03
2451704.500000000 = A.D. 2000-Jun-09 00:00:00.0000 TDB 
  -3.136188287780761E-04 -3.784275458154473E-04 -8.444310755577725E-06
   3.806045655066166E-03 -3.092083718395799E-03 -2.649386688383582E-03
2451709.500000000 = A.D. 2000-Jun-14 00:00:00.0000 TDB 
  -2.810557097230718E-04 -4.016864996965625E-04 -2.988519300983007E-05
   4.117049701183919E-03 -2.684976850002862E-03 -2.629636491444975E-03
2451714.500000000 = A.D. 2000-Jun-19 00:00:00.0000 TDB 
  -2.463571833867070E-04 -4.214194724426767E-04 -5.077649077789141E-05
   4.393467398489821E-03 -2.254716329324199E-03 -2.587623615234273E-03
2451719.500000000 = A.D. 2000-Jun-24 00:00:00.0000 TDB 
  -2.099257405813299E-04 -4.377422184571264E-04 -7.113870833946976E-05
   4.632618008731250E-03 -1.804960797046893E-03 -2.523498471144661E-03
2451724.500000000 = A.D. 2000-Jun-29 00:00:00.0000 TDB 
  -1.718890753905581E-04 -4.506690221524083E-04 -9.107321437876952E-05
   4.832176730125095E-03 -1.339773201490556E-03 -2.437851236044792E-03
2451729.500000000 = A.D. 2000-Jul-04 00:00:00.0000 TDB 
  -1.322470412951894E-04 -4.599874221452142E-04 -1.105389144928601E-04
   4.990428096106760E-03 -8.633774267157202E-04 -2.331669054605736E-03
2451734.500000000 = A.D. 2000-Jul-09 00:00:00.0000 TDB 
  -9.113518399327270E-05 -4.653434329464085E-04 -1.292494045211806E-04
   5.106291338051902E-03 -3.798909535986270E-04 -2.206113663276495E-03
2451739.500000000 = A.D. 2000-Jul-14 00:00:00.0000 TDB 
  -4.898751578799924E-05 -4.664684509373755E-04 -1.467756649064683E-04
   5.179108978187126E-03  1.067753262922988E-04 -2.062295966502765E-03
2451744.500000000 = A.D. 2000-Jul-19 00:00:00.0000 TDB 
  -6.463324684742814E-06 -4.633631730982840E-04 -1.627716035463690E-04
   5.208380617039569E-03  5.927960311324299E-04 -1.901225458466395E-03
2451749.500000000 = A.D. 2000-Jul-24 00:00:00.0000 TDB 
   3.580463015373084E-05 -4.562886670995101E-04 -1.771393752460750E-04
   5.193666285483897E-03  1.074216016804208E-03 -1.723968601481836E-03
